[{"OBJECT_NAME":"HST","OBJECT_ID":"1990-037B","EPOCH":"2026-03-09T03:50:04.164288","MEAN_MOTION":15.29473555,"ECCENTRICITY":0.00018372,"INCLINATION":28.4717,"RA_OF_ASC_NODE":43.6133,"ARG_OF_PERICENTER":120.9992,"MEAN_ANOMALY":239.0785,"EPHEMERIS_TYPE":0,"CLASSIFICATION_TYPE":"U","NORAD_CAT_ID":20580,"ELEMENT_SET_NO":999,"REV_AT_EPOCH":77323,"BSTAR":0.0003002261,"MEAN_MOTION_DOT":9.063e-5,"MEAN_MOTION_DDOT":0},{"OBJECT_NAME":"STARLINK-35776","OBJECT_ID":"2025-247T","EPOCH":"2026-03-09T13:47:32.561088","MEAN_MOTION":15.30210742,"ECCENTRICITY":0.0004432,"INCLINATION":53.1585,"RA_OF_ASC_NODE":192.1456,"ARG_OF_PERICENTER":169.0522,"MEAN_ANOMALY":191.0576,"EPHEMERIS_TYPE":0,"CLASSIFICATION_TYPE":"U","NORAD_CAT_ID":66282,"ELEMENT_SET_NO":999,"REV_AT_EPOCH":2101,"BSTAR":0.00091943,"MEAN_MOTION_DOT":0.00026985,"MEAN_MOTION_DDOT":0}]
